NORAD_CAT_ID,OBJECT_NAME,OBJECT_TYPE,EPOCH,MEAN_MOTION,ECCENTRICITY,INCLINATION,RA_OF_ASC_NODE,ARG_OF_PERICENTER,MEAN_ANOMALY,BSTAR,MEAN_MOTION_DOT,MEAN_MOTION_DDOT,TLE_LINE0,TLE_LINE1,TLE_LINE2,SEMIMAJOR_AXIS,PERIOD,APOGEE,PERIGEE,DECAYED
53613.0,STARLINK-4655,PAYLOAD,2023-06-11 09:59:37,15.08840189,0.0001254,53.2177,53.652,81.4964,278.617,-1.0475e-06,-3.05e-06,0.0,0 STARLINK-4655,1 53613U 22104AB  23162.41640343 -.00000305  00000-0 -10475-5 0  9998,2 53613  53.2177  53.6520 0001254  81.4964 278.6170 15.08840189 43754,6917.88,95.438,540.612,538.877,0.0
53613.0,STARLINK-4655,PAYLOAD,2023-06-11 22:42:42,15.08835241,0.0001263,53.2177,51.2753,85.3213,274.7923,7.4931e-05,9.05e-06,0.0,0 STARLINK-4655,1 53613U 22104AB  23162.94632549  .00000905  00000-0  74931-4 0  9995,2 53613  53.2177  51.2753 0001263  85.3213 274.7923 15.08835241 44405,6917.895,95.438,540.634,538.886,0.0
53613.0,STARLINK-4655,PAYLOAD,2023-06-12 01:53:28,15.08839848,0.0001243,53.2176,50.6785,82.4625,277.6509,4.4181e-05,4.15e-06,0.0,0 STARLINK-4655,1 53613U 22104AB  23163.07880346  .00000415  00000-0  44181-4 0  9990,2 53613  53.2176  50.6785 0001243  82.4625 277.6509 15.08839848 44426,6917.881,95.438,540.606,538.886,0.0
53613.0,STARLINK-4655,PAYLOAD,2023-06-12 19:22:43,15.0883853,0.000128,53.2186,47.4063,90.2027,269.9111,1.4195e-06,-2.65e-06,0.0,0 STARLINK-4655,1 53613U 22104AB  23163.80744560 -.00000265  00000-0  14195-5 0  9995,2 53613  53.2186  47.4063 0001280  90.2027 269.9111 15.08838530 43962,6917.885,95.438,540.635,538.864,0.0
53613.0,STARLINK-4655,PAYLOAD,2023-06-12 22:33:29,15.08841115,0.0001242,53.2187,46.8112,91.2004,268.9131,2.2614e-05,7.2e-07,0.0,0 STARLINK-4655,1 53613U 22104AB  23163.93992306  .00000072  00000-0  22614-4 0  9991,2 53613  53.2187  46.8112 0001242  91.2004 268.9131 15.08841115 44555,6917.877,95.437,540.601,538.883,0.0
53613.0,STARLINK-4655,PAYLOAD,2023-06-13 01:44:15,15.08849855,0.0001206,53.2182,46.2157,99.0891,261.0238,1.3414e-05,-7.4e-07,0.0,0 STARLINK-4655,1 53613U 22104AB  23164.07239705 -.00000074  00000-0  13414-4 0  9995,2 53613  53.2182  46.2157 0001206  99.0891 261.0238 15.08849855 44004,6917.85,95.437,540.55,538.881,0.0
53613.0,STARLINK-4655,PAYLOAD,2023-06-14 01:35:02,15.08839478,0.0001214,53.2179,41.7564,90.3487,269.7645,-1.7865e-05,-5.72e-06,0.0,0 STARLINK-4655,1 53613U 22104AB  23165.06600414 -.00000572  00000-0 -17865-4 0  9992,2 53613  53.2179  41.7564 0001214  90.3487 269.7645 15.08839478 44159,6917.882,95.438,540.587,538.907,0.0
53613.0,STARLINK-4655,PAYLOAD,2023-06-15 01:25:49,15.08839632,0.0001325,53.2185,37.2953,89.5657,270.5487,-2.7713e-05,-7.29e-06,0.0,0 STARLINK-4655,1 53613U 22104AB  23166.05960566 -.00000729  00000-0 -27713-4 0  9996,2 53613  53.2185  37.2953 0001325  89.5657 270.5487 15.08839632 44875,6917.882,95.438,540.663,538.83,0.0
53613.0,STARLINK-4655,PAYLOAD,2023-06-16 01:16:36,15.08847237,0.0001186,53.2176,32.8351,83.7556,276.3571,3.5976e-05,2.85e-06,0.0,0 STARLINK-4655,1 53613U 22104AB  23167.05319954  .00000285  00000-0  35976-4 0  9991,2 53613  53.2176  32.8351 0001186  83.7556 276.3571 15.08847237 44459,6917.858,95.437,540.544,538.903,0.0
53613.0,STARLINK-4655,PAYLOAD,2023-06-16 07:38:08,15.08844945,0.000116,53.2174,31.646,85.5821,274.5303,4.4929e-05,4.27e-06,0.0,0 STARLINK-4655,1 53613U 22104AB  23167.31815958  .00000427  00000-0  44929-4 0  9991,2 53613  53.2174  31.6460 0001160  85.5821 274.5303 15.08844945 45066,6917.865,95.437,540.533,538.928,0.0
53613.0,STARLINK-4655,PAYLOAD,2023-06-16 15:35:05,15.08834003,0.0001372,53.2181,30.1598,89.8597,270.2553,6.7155e-05,7.81e-06,0.0,0 STARLINK-4655,1 53613U 22104AB  23167.64936577  .00000781  00000-0  67155-4 0  9997,2 53613  53.2181  30.1598 0001372  89.8597 270.2553 15.08834003 44548,6917.899,95.438,540.713,538.815,0.0
53613.0,STARLINK-4655,PAYLOAD,2023-06-17 01:07:23,15.088482,0.0001311,53.2179,28.3769,90.6489,269.4653,9.9972e-05,1.304e-05,0.0,0 STARLINK-4655,1 53613U 22104AB  23168.04679552  .00001304  00000-0  99972-4 0  9993,2 53613  53.2179  28.3769 0001311  90.6489 269.4653 15.08848200 44609,6917.855,95.437,540.627,538.813,0.0
53613.0,STARLINK-4655,PAYLOAD,2023-06-17 07:28:57,15.08824373,9.51e-05,53.2182,27.186,91.1313,268.9789,-7.9849e-05,-1.558e-05,0.0,0 STARLINK-4655,1 53613U 22104AB  23168.31177591 -.00001558  00000-0 -79849-4 0  9993,2 53613  53.2182  27.1860 0000951  91.1313 268.9789 15.08824373 44646,6917.928,95.439,540.451,539.135,0.0
53613.0,STARLINK-4655,PAYLOAD,2023-06-18 07:19:44,15.0883475,0.0001235,53.219,22.7265,94.4851,265.6283,-4.1779e-05,-9.53e-06,0.0,0 STARLINK-4655,1 53613U 22104AB  23169.30537766 -.00000953  00000-0 -41779-4 0  9996,2 53613  53.2190  22.7265 0001235  94.4851 265.6283 15.08834750 44793,6917.896,95.438,540.616,538.907,0.0
53613.0,STARLINK-4655,PAYLOAD,2023-06-18 16:52:02,15.08839624,0.0001168,53.2177,20.9433,98.9018,261.2106,6.8474e-05,8.02e-06,0.0,0 STARLINK-4655,1 53613U 22104AB  23169.70281219  .00000802  00000-0  68474-4 0  9991,2 53613  53.2177  20.9433 0001168  98.9018 261.2106 15.08839624 44852,6917.882,95.438,540.555,538.939,0.0
53613.0,STARLINK-4655,PAYLOAD,2023-06-19 00:48:57,15.08850829,0.0001076,53.2176,19.4555,96.6884,263.423,9.4983e-05,1.225e-05,0.0,0 STARLINK-4655,1 53613U 22104AB  23170.03400401  .00001225  00000-0  94983-4 0  9999,2 53613  53.2176  19.4555 0001076  96.6884 263.4230 15.08850829 44901,6917.847,95.437,540.457,538.968,0.0
53613.0,STARLINK-4655,PAYLOAD,2023-06-19 16:42:50,15.08831672,0.0001046,53.2177,16.4818,100.9401,259.1709,0.00021368,3.114e-05,0.0,0 STARLINK-4655,1 53613U 22104AB  23170.69641485  .00003114  00000-0  21368-3 0  9995,2 53613  53.2177  16.4818 0001046 100.9401 259.1709 15.08831672 45002,6917.906,95.438,540.494,539.047,0.0
53613.0,STARLINK-4655,PAYLOAD,2023-06-19 19:53:36,15.08834669,0.0001103,53.2178,15.8871,105.4612,254.6502,0.00023553,3.462e-05,0.0,0 STARLINK-4655,1 53613U 22104AB  23170.82889354  .00003462  00000-0  23553-3 0  9993,2 53613  53.2178  15.8871 0001103 105.4612 254.6502 15.08834669 45597,6917.897,95.438,540.525,538.999,0.0
53613.0,STARLINK-4655,PAYLOAD,2023-06-20 00:39:45,15.08843217,0.0001109,53.217,14.9962,98.4133,261.6985,0.0002047,2.972e-05,0.0,0 STARLINK-4655,1 53613U 22104AB  23171.02760966  .00002972  00000-0  20470-3 0  9993,2 53613  53.2170  14.9962 0001109  98.4133 261.6985 15.08843217 45058,6917.871,95.437,540.503,538.968,0.0
53613.0,STARLINK-4655,PAYLOAD,2023-06-20 07:01:19,15.08833088,0.0001416,53.2176,13.8057,85.4885,274.6269,9.5278e-05,1.228e-05,0.0,0 STARLINK-4655,1 53613U 22104AB  23171.29258127  .00001228  00000-0  95278-4 0  9995,2 53613  53.2176  13.8057 0001416  85.4885 274.6269 15.08833088 45096,6917.902,95.438,540.746,538.787,0.0
53613.0,STARLINK-4655,PAYLOAD,2023-06-20 18:09:00,15.08842355,8.34e-05,53.2185,11.7244,86.1853,273.9235,5.8701e-05,6.47e-06,0.0,0 STARLINK-4655,1 53613U 22104AB  23171.75625428  .00000647  00000-0  58701-4 0  9992,2 53613  53.2185  11.7244 0000834  86.1853 273.9235 15.08842355 45167,6917.873,95.437,540.315,539.161,0.0
53613.0,STARLINK-4655,PAYLOAD,2023-06-20 19:44:23,15.08848776,0.0001019,53.2183,11.426,89.3987,270.7122,2.1167e-05,4.9e-07,0.0,0 STARLINK-4655,1 53613U 22104AB  23171.82249147  .00000049  00000-0  21167-4 0  9992,2 53613  53.2183  11.4260 0001019  89.3987 270.7122 15.08848776 45746,6917.854,95.437,540.423,539.014,0.0
53613.0,STARLINK-4655,PAYLOAD,2023-06-20 22:55:09,15.08851954,9.94e-05,53.2184,10.8308,93.3624,266.7482,4.6568e-05,4.54e-06,0.0,0 STARLINK-4655,1 53613U 22104AB  23171.95496766  .00000454  00000-0  46568-4 0  9999,2 53613  53.2184  10.8308 0000994  93.3624 266.7482 15.08851954 45192,6917.844,95.437,540.396,539.021,0.0
53613.0,STARLINK-4655,PAYLOAD,2023-06-21 13:13:38,15.08837479,0.0001131,53.2187,8.1576,93.152,266.9602,2.2122e-05,6.4e-07,0.0,0 STARLINK-4655,1 53613U 22104AB  23172.55113730  .00000064  00000-0  22122-4 0  9990,2 53613  53.2187   8.1576 0001131  93.1520 266.9602 15.08837479 45281,6917.888,95.438,540.536,538.971,0.0
53613.0,STARLINK-4655,PAYLOAD,2023-06-21 19:35:10,15.08846689,9.69e-05,53.2181,6.9657,84.6453,275.465,1.1189e-05,-1.1e-06,0.0,0 STARLINK-4655,1 53613U 22104AB  23172.81609144 -.00000110  00000-0  11189-4 0  9992,2 53613  53.2181   6.9657 0000969  84.6453 275.4650 15.08846689 45325,6917.86,95.437,540.395,539.055,0.0
53613.0,STARLINK-4655,PAYLOAD,2023-06-22 22:36:43,15.08848106,9.96e-05,53.2181,1.91,92.2967,267.8139,7.4159e-05,8.93e-06,0.0,0 STARLINK-4655,1 53613U 22104AB  23173.94216845  .00000893  00000-0  74159-4 0  9992,2 53613  53.2181   1.9100 0000996  92.2967 267.8139 15.08848106 45499,6917.856,95.437,540.41,539.032,0.0
53613.0,STARLINK-4655,PAYLOAD,2023-06-23 19:16:44,15.08843861,9.19e-05,53.2178,358.0456,84.4161,275.6936,0.00010266,1.347e-05,0.0,0 STARLINK-4655,1 53613U 22104AB  23174.80329177  .00001347  00000-0  10266-3 0  9994,2 53613  53.2178 358.0456 0000919  84.4161 275.6936 15.08843861 45629,6917.869,95.437,540.369,539.098,0.0
53613.0,STARLINK-4655,PAYLOAD,2023-06-24 15:56:45,15.0883889,0.0001157,53.2191,354.1807,94.6652,265.4472,-6.4703e-06,-3.91e-06,0.0,0 STARLINK-4655,1 53613U 22104AB  23175.66441887 -.00000391  00000-0 -64703-5 0  9999,2 53613  53.2191 354.1807 0001157  94.6652 265.4472 15.08838890 45756,6917.884,95.438,540.549,538.948,0.0
53613.0,STARLINK-4655,PAYLOAD,2023-06-24 22:18:17,15.08847822,0.0001197,53.2192,352.9918,96.8065,263.3063,6.5658e-05,7.57e-06,0.0,0 STARLINK-4655,1 53613U 22104AB  23175.92937163  .00000757  00000-0  65658-4 0  9998,2 53613  53.2192 352.9918 0001197  96.8065 263.3063 15.08847822 45794,6917.856,95.437,540.55,538.893,0.0
53613.0,STARLINK-4655,PAYLOAD,2023-06-25 04:39:51,15.08833618,0.0001139,53.2178,351.7995,83.6379,276.4743,3.0337e-05,1.95e-06,0.0,0 STARLINK-4655,1 53613U 22104AB  23176.19434240  .00000195  00000-0  30337-4 0  9998,2 53613  53.2178 351.7995 0001139  83.6379 276.4743 15.08833618 45831,6917.9,95.438,540.553,538.977,0.0
